CAS500-2 RIDESHARE OBJE*
1 68992U 26100N   26129.77368367  .00001065  00000+0  11241-3 0  9993
2 68992  97.7406  27.9390 0001741 277.0961  83.0060 14.91319771   970
