{
  "norad_id": 68992,
  "name": "CAS500-2 RIDESHARE OBJECT N",
  "history": [
    {
      "epoch": "2026-05-09T18:34:06.269088Z",
      "apogee_km": 595.0331392652633,
      "perigee_km": 592.6055040740584,
      "latitude_deg": 5.019156157056022e-05,
      "longitude_deg": -118.17357193597945,
      "height_km": 596.7133176899886,
      "semi_major_axis_km": 6971.956321669661,
      "eccentricity": 0.0001741,
      "inclination_deg": 97.7406,
      "raan_deg": 27.939,
      "arg_perigee_deg": 277.0961,
      "mean_anomaly_deg": 83.006,
      "mean_motion_rev_day": 14.91319771
    }
  ]
}